[
  {
    "name": "ONEWEB-0164",
    "noradId": "48063",
    "line1": "1 48063U 21025X   26192.77769064  .00000117  00000+0  28658-3 0  9997",
    "line2": "2 48063  87.8992 315.3295 0001913 103.4056 256.7286 13.13469808256818"
  },
  {
    "name": "ONEWEB-0167",
    "noradId": "48064",
    "line1": "1 48064U 21025Y   26192.80563080  .00000333  00000+0  87787-3 0  9990",
    "line2": "2 48064  87.8987 315.3283 0002300 115.2514 244.8854 13.13469938256803"
  },
  {
    "name": "ONEWEB-0166",
    "noradId": "48065",
    "line1": "1 48065U 21025Z   26192.82847677 -.00000357  00000+0 -10135-2 0  9990",
    "line2": "2 48065  87.8988 315.3004 0001993  97.4602 262.6754 13.13469306256886"
  },
  {
    "name": "ONEWEB-0151",
    "noradId": "48066",
    "line1": "1 48066U 21025AA  26192.83016024 -.00000296  00000+0 -84429-3 0  9996",
    "line2": "2 48066  87.8985 315.3150 0001934 103.5657 256.5687 13.13470002256826"
  },
  {
    "name": "ONEWEB-0170",
    "noradId": "48067",
    "line1": "1 48067U 21025AB  26192.83862324 -.00000239  00000+0 -68959-3 0  9996",
    "line2": "2 48067  87.8980 315.3152 0001756 115.3362 244.7949 13.13469587256781"
  },
  {
    "name": "ONEWEB-0168",
    "noradId": "48068",
    "line1": "1 48068U 21025AC  26193.28045787 -.00000165  00000+0 -48773-3 0  9993",
    "line2": "2 48068  87.8984 315.2282 0001994 101.6979 258.4374 13.13468994256858"
  },
  {
    "name": "ONEWEB-0173",
    "noradId": "48069",
    "line1": "1 48069U 21025AD  26193.27199811 -.00000028  00000+0 -11290-3 0  9993",
    "line2": "2 48069  87.8988 315.2298 0002397 110.0952 250.0435 13.13469010257096"
  },
  {
    "name": "ONEWEB-0171",
    "noradId": "48070",
    "line1": "1 48070U 21025AE  26192.85217339  .00000124  00000+0  30453-3 0  9991",
    "line2": "2 48070  87.8975 315.3210 0001964 101.2288 258.9062 13.13470254256850"
  },
  {
    "name": "ONEWEB-0172",
    "noradId": "48071",
    "line1": "1 48071U 21025AF  26192.83185538 -.00000323  00000+0 -91825-3 0  9998",
    "line2": "2 48071  87.8987 315.3169 0002061 102.7342 257.4018 13.13470486257744"
  },
  {
    "name": "ONEWEB-0174",
    "noradId": "48072",
    "line1": "1 48072U 21025AG  26192.81324299 -.00000082  00000+0 -26021-3 0  9994",
    "line2": "2 48072  87.8986 315.3195 0002003  94.7885 265.3472 13.13468434257068"
  },
  {
    "name": "ONEWEB-0175",
    "noradId": "48073",
    "line1": "1 48073U 21025AH  26192.84370864 -.00000146  00000+0 -43491-3 0  9998",
    "line2": "2 48073  87.8983 315.2986 0002044 108.7473 251.3878 13.13469977256727"
  },
  {
    "name": "ONEWEB-0177",
    "noradId": "48074",
    "line1": "1 48074U 21025AJ  26192.85556261  .00000138  00000+0  34339-3 0  9997",
    "line2": "2 48074  87.8982 315.3141 0002060  95.3656 264.7708 13.13471064256914"
  },
  {
    "name": "ONEWEB-0178",
    "noradId": "48075",
    "line1": "1 48075U 21025AK  26192.79814931  .00000273  00000+0  71184-3 0  9991",
    "line2": "2 48075  87.8973 315.3354 0002159 103.7249 256.4121 13.13470044256950"
  },
  {
    "name": "ONEWEB-0108",
    "noradId": "48076",
    "line1": "1 48076U 21025AL  26193.29061628 -.00000302  00000+0 -86168-3 0  9998",
    "line2": "2 48076  87.8994 315.2189 0001742  96.5698 263.5629 13.13469557256941"
  },
  {
    "name": "ONEWEB-0169",
    "noradId": "48077",
    "line1": "1 48077U 21025AM  26192.86572202  .00000305  00000+0  79934-3 0  9990",
    "line2": "2 48077  87.8979 315.3104 0001994  94.2011 265.9346 13.13469321255542"
  },
  {
    "name": "ONEWEB-0176",
    "noradId": "48210",
    "line1": "1 48210U 21031A   26193.22174122  .00000023  00000+0  26654-4 0  9995",
    "line2": "2 48210  87.8967 284.7113 0002162 102.0496 258.0877 13.14502958251600"
  },
  {
    "name": "ONEWEB-0184",
    "noradId": "48211",
    "line1": "1 48211U 21031B   26193.19478419 -.00000125  00000+0 -37228-3 0  9991",
    "line2": "2 48211  87.8978 284.7185 0002502 117.1917 242.9468 13.14502298251576"
  },
  {
    "name": "ONEWEB-0179",
    "noradId": "48212",
    "line1": "1 48212U 21031C   26193.22475469 -.00000769  00000+0 -25856-3 0  9996",
    "line2": "2 48212  87.9019 280.9446 0221216 175.0241 185.3228 14.25565472252616"
  },
  {
    "name": "ONEWEB-0180",
    "noradId": "48213",
    "line1": "1 48213U 21031D   26193.19795921 -.00000152  00000+0 -44542-3 0  9990",
    "line2": "2 48213  87.8987 284.7147 0002528 102.0629 258.0784 13.14502970251506"
  },
  {
    "name": "ONEWEB-0218",
    "noradId": "48214",
    "line1": "1 48214U 21031E   26193.22015603 -.00000068  00000+0 -21680-3 0  9991",
    "line2": "2 48214  87.8979 284.7101 0002756 112.5752 247.5670 13.14503818251660"
  },
  {
    "name": "ONEWEB-0209",
    "noradId": "48215",
    "line1": "1 48215U 21031F   26192.75235609 -.00000172  00000+0 -49881-3 0  9998",
    "line2": "2 48215  87.8968 284.8177 0002275  96.5306 263.6083 13.14503466251605"
  },
  {
    "name": "ONEWEB-0198",
    "noradId": "48216",
    "line1": "1 48216U 21031G   26193.19333985 -.00000126  00000+0 -37491-3 0  9997",
    "line2": "2 48216  87.8959 284.7273 0002426 102.8821 257.2580 13.14502522251774"
  },
  {
    "name": "ONEWEB-0189",
    "noradId": "48217",
    "line1": "1 48217U 21031H   26192.74917884 -.00000237  00000+0 -67411-3 0  9992",
    "line2": "2 48217  87.8972 284.8047 0002403 101.9100 258.2299 13.14502069251454"
  },
  {
    "name": "ONEWEB-0196",
    "noradId": "48218",
    "line1": "1 48218U 21031J   26193.25980415 -.00000003  00000+0 -41784-4 0  9997",
    "line2": "2 48218  87.8975 284.7109 0002114 102.3089 257.8277 13.14502241251527"
  },
  {
    "name": "ONEWEB-0183",
    "noradId": "48219",
    "line1": "1 48219U 21031K   26193.23442900  .00000222  00000+0  56309-3 0  9997",
    "line2": "2 48219  87.8965 284.7145 0001997  92.3572 267.7786 13.14502579251619"
  },
  {
    "name": "ONEWEB-0185",
    "noradId": "48220",
    "line1": "1 48220U 21031L   26192.80387563 -.00000019  00000+0 -85027-4 0  9990",
    "line2": "2 48220  87.8976 284.7954 0002278  89.4532 270.6859 13.14503384251481"
  },
  {
    "name": "ONEWEB-0187",
    "noradId": "48221",
    "line1": "1 48221U 21031M   26193.24063227  .00000198  00000+0  50040-3 0  9990",
    "line2": "2 48221  87.8966 284.7231 0002151 100.2886 259.8486 13.14502711251559"
  },
  {
    "name": "ONEWEB-0192",
    "noradId": "48222",
    "line1": "1 48222U 21031N   26193.21064327 -.00000194  00000+0 -55768-3 0  9990",
    "line2": "2 48222  87.8966 284.7183 0002098 101.5408 258.5957 13.14503212251466"
  },
  {
    "name": "ONEWEB-0219",
    "noradId": "48223",
    "line1": "1 48223U 21031P   26193.19001579 -.00000035  00000+0 -12998-3 0  9990",
    "line2": "2 48223  87.8979 284.7149 0002208  96.0319 264.1062 13.14503428251666"
  },
  {
    "name": "ONEWEB-0202",
    "noradId": "48224",
    "line1": "1 48224U 21031Q   26192.79042010 -.00000325  00000+0 -91098-3 0  9991",
    "line2": "2 48224  87.8984 284.8081 0002806 109.2422 250.9011 13.14498033251599"
  },
  {
    "name": "ONEWEB-0204",
    "noradId": "48225",
    "line1": "1 48225U 21031R   26192.74837344 -.00000233  00000+0 -66229-3 0  9995",
    "line2": "2 48225  87.8973 284.8101 0001864  87.5526 272.5818 13.14499305251483"
  },
  {
    "name": "ONEWEB-0205",
    "noradId": "48226",
    "line1": "1 48226U 21031S   26192.79992239  .00000043  00000+0  82797-4 0  9992",
    "line2": "2 48226  87.8974 284.7955 0002265  99.4917 260.6469 13.14502414251502"
  },
  {
    "name": "ONEWEB-0206",
    "noradId": "48227",
    "line1": "1 48227U 21031T   26193.22966605  .00000138  00000+0  33752-3 0  9991",
    "line2": "2 48227  87.8970 284.7095 0001927 101.5031 258.6315 13.14502295251515"
  },
  {
    "name": "ONEWEB-0182",
    "noradId": "48228",
    "line1": "1 48228U 21031U   26193.22490481  .00000000  00000+0 -34980-4 0  9990",
    "line2": "2 48228  87.8961 284.7181 0001917  95.8392 264.2956 13.14504245251720"
  },
  {
    "name": "ONEWEB-0186",
    "noradId": "48229",
    "line1": "1 48229U 21031V   26193.23601422  .00000205  00000+0  51916-3 0  9994",
    "line2": "2 48229  87.8978 284.7081 0002156  97.9777 262.1598 13.14503114251671"
  },
  {
    "name": "ONEWEB-0181",
    "noradId": "48230",
    "line1": "1 48230U 21031W   26193.21379461 -.00000290  00000+0 -81693-3 0  9990",
    "line2": "2 48230  87.8958 284.7372 0002280  99.3882 260.7506 13.14502687251526"
  },
  {
    "name": "ONEWEB-0188",
    "noradId": "48231",
    "line1": "1 48231U 21031X   26192.79516178  .00000104  00000+0  24703-3 0  9992",
    "line2": "2 48231  87.8966 284.8197 0002043 100.3508 259.7852 13.14502215251379"
  },
  {
    "name": "ONEWEB-0220",
    "noradId": "48232",
    "line1": "1 48232U 21031Y   26193.21538427 -.00000316  00000+0 -88615-3 0  9991",
    "line2": "2 48232  87.8978 284.7140 0002380  95.6479 264.4923 13.14502670251699"
  },
  {
    "name": "ONEWEB-0165",
    "noradId": "48233",
    "line1": "1 48233U 21031Z   26192.78724272  .00000103  00000+0  24338-3 0  9992",
    "line2": "2 48233  87.8971 284.8099 0002454 102.6803 257.4602 13.14502546251596"
  },
  {
    "name": "ONEWEB-0199",
    "noradId": "48234",
    "line1": "1 48234U 21031AA  26192.77138065  .00000025  00000+0  32020-4 0  9992",
    "line2": "2 48234  87.8975 284.8003 0001914  99.9221 260.2125 13.14501396251491"
  },
  {
    "name": "ONEWEB-0203",
    "noradId": "48235",
    "line1": "1 48235U 21031AB  26193.21856513 -.00000122  00000+0 -36391-3 0  9992",
    "line2": "2 48235  87.8969 284.7141 0001969 105.4962 254.6385 13.14501336251569"
  },
  {
    "name": "ONEWEB-0197",
    "noradId": "48236",
    "line1": "1 48236U 21031AC  26192.81246312 -.00000208  00000+0 -59531-3 0  9994",
    "line2": "2 48236  87.8966 284.7793 0002030  91.4968 268.6395 13.14501622251429"
  },
  {
    "name": "ONEWEB-0194",
    "noradId": "48237",
    "line1": "1 48237U 21031AD  26192.79199010  .00000233  00000+0  59302-3 0  9996",
    "line2": "2 48237  87.8968 284.8068 0001841 105.9202 254.2130 13.14503902251598"
  }
]